CCSDS_OMM_VERS,COMMENT,CREATION_DATE,ORIGINATOR,OBJECT_NAME,OBJECT_ID,CENTER_NAME,REF_FRAME,TIME_SYSTEM,MEAN_ELEMENT_THEORY,EPOCH,MEAN_MOTION,ECCENTRICITY,INCLINATION,RA_OF_ASC_NODE,ARG_OF_PERICENTER,MEAN_ANOMALY,EPHEMERIS_TYPE,CLASSIFICATION_TYPE,NORAD_CAT_ID,ELEMENT_SET_NO,REV_AT_EPOCH,BSTAR,MEAN_MOTION_DOT,MEAN_MOTION_DDOT,SEMIMAJOR_AXIS,PERIOD,APOAPSIS,PERIAPSIS,OBJECT_TYPE,RCS_SIZE,COUNTRY_CODE,LAUNCH_DATE,SITE,DECAY_DATE,FILE,GP_ID,TLE_LINE0,TLE_LINE1,TLE_LINE2
"2.0","GENERATED VIA SPACE-TRACK.ORG API","2023-01-02T17:42:09","18 SPCS","RBSP B","2012-046B","EARTH","TEME","UTC","SGP4","2023-01-02T04:31:47.834112","3.03517255","0.67235970","9.8602","242.5901","344.0616","2.4586","0","U","38753","999","10274","0.00221700000000","0.00022223","0.0000000000000","20150.210","474.438","27320.265","223.886","PAYLOAD","LARGE","US","2012-08-30","AFETR","","3729583","222022983","0 RBSP B","1 38753U 12046B   23002.18874808  .00022223  00000-0  22170-2 0  9995","2 38753   9.8602 242.5901 6723597 344.0616   2.4586  3.03517255102749"
"2.0","GENERATED VIA SPACE-TRACK.ORG API","2023-01-03T02:40:54","18 SPCS","RBSP B","2012-046B","EARTH","TEME","UTC","SGP4","2023-01-02T12:26:09.303936","3.03531781","0.67234750","9.8593","242.3981","344.4370","2.4051","0","U","38753","999","10275","0.00187900000000","0.00018841","0.0000000000000","20149.567","474.415","27318.944","223.921","PAYLOAD","LARGE","US","2012-08-30","AFETR","","3729873","222056787","0 RBSP B","1 38753U 12046B   23002.51816324  .00018841  00000-0  18790-2 0  9995","2 38753   9.8593 242.3981 6723475 344.4370   2.4051  3.03531781102758"
"2.0","GENERATED VIA SPACE-TRACK.ORG API","2023-01-02T01:06:13","18 SPCS","BEIDOU 15","2012-050B","EARTH","TEME","UTC","SGP4","2023-01-01T11:23:29.569920","1.86231246","0.00113520","55.5236","105.0241","327.4872","47.2761","0","U","38775","999","7015","0.00000000000000","-0.00000054","0.0000000000000","27906.164","773.232","21559.708","21496.350","PAYLOAD","LARGE","PRC","2012-09-18","XSC","","3728890","221965398","0 BEIDOU 15","1 38775U 12050B   23001.47464780 -.00000054  00000-0  00000+0 0  9993","2 38775  55.5236 105.0241 0011352 327.4872  47.2761  1.86231246 70159"
"2.0","GENERATED VIA SPACE-TRACK.ORG API","2023-01-02T17:42:09","18 SPCS","BEIDOU 15","2012-050B","EARTH","TEME","UTC","SGP4","2023-01-01T23:49:42.678048","1.86231246","0.00113550","55.5239","105.0067","327.4938","34.7022","0","U","38775","999","7016","0.00000000000000","-0.00000059","0.0000000000000","27906.164","773.232","21559.716","21496.342","PAYLOAD","LARGE","PRC","2012-09-18","XSC","","3729583","222022984","0 BEIDOU 15","1 38775U 12050B   23001.99285507 -.00000059  00000-0  00000-0 0  9994","2 38775  55.5239 105.0067 0011355 327.4938  34.7022  1.86231246 70166"
"2.0","GENERATED VIA SPACE-TRACK.ORG API","2023-01-03T02:40:54","18 SPCS","BEIDOU 15","2012-050B","EARTH","TEME","UTC","SGP4","2023-01-02T11:22:16.819392","1.86231241","0.00113640","55.5242","104.9905","327.4961","357.1535","0","U","38775","999","7016","0.00000000000000","-0.00000063","0.0000000000000","27906.164","773.232","21559.742","21496.317","PAYLOAD","LARGE","PRC","2012-09-18","XSC","","3729873","222056788","0 BEIDOU 15","1 38775U 12050B   23002.47380578 -.00000063  00000-0  00000-0 0  9997","2 38775  55.5242 104.9905 0011364 327.4961 357.1535  1.86231241 70161"
"2.0","GENERATED VIA SPACE-TRACK.ORG API","2023-01-02T02:38:49","18 SPCS","ARIANE 5 R/B","2012-051C","EARTH","TEME","UTC","SGP4","2023-01-01T06:53:36.316032","2.59980041","0.70245250","6.1383","258.8688","287.3084","11.7190","0","U","38780","999","9153","0.00053742000000","0.00001735","0.0000000000000","22341.303","553.889","31656.873","269.464","ROCKET BODY","LARGE","FR","2012-09-28","FRGUI","","3728952","221982194","0 ARIANE 5 R/B","1 38780U 12051C   23001.28722588  .00001735  00000-0  53742-3 0  9993","2 38780   6.1383 258.8688 7024525 287.3084  11.7190  2.59980041 91536"
"2.0","GENERATED VIA SPACE-TRACK.ORG API","2023-01-01T22:36:13","18 SPCS","ARIANE 5 R/B","2012-051C","EARTH","TEME","UTC","SGP4","2023-01-01T06:53:36.316032","2.59980041","0.70245250","6.1383","258.8688","287.3084","11.7190","0","U","38780","999","9149","0.00053742000000","0.00001735","0.0000000000000","22341.303","553.889","31656.873","269.464","ROCKET BODY","LARGE","FR","2012-09-28","FRGUI","","3728781","221962777","0 ARIANE 5 R/B","1 38780U 12051C   23001.28722588  .00001735  00000-0  53742-3 0  9993","2 38780   6.1383 258.8688 7024525 287.3084  11.7190  2.59980041 91491"
"2.0","GENERATED VIA SPACE-TRACK.ORG API","2023-01-03T02:40:54","18 SPCS","ARIANE 5 R/B","2012-051C","EARTH","TEME","UTC","SGP4","2023-01-02T19:48:36.995616","2.59984415","0.70243630","6.1382","258.1244","288.7781","11.3724","0","U","38780","999","9157","0.00043317000000","0.00001463","0.0000000000000","22341.053","553.879","31656.084","269.751","ROCKET BODY","LARGE","FR","2012-09-28","FRGUI","","3729873","222057541","0 ARIANE 5 R/B","1 38780U 12051C   23002.82542819  .00001463  00000-0  43317-3 0  9996","2 38780   6.1382 258.1244 7024363 288.7781  11.3724  2.59984415 91577"
"2.0","GENERATED VIA SPACE-TRACK.ORG API","2023-01-04T03:14:03","18 SPCS","ARIANE 5 R/B","2012-051C","EARTH","TEME","UTC","SGP4","2023-01-02T19:48:37.122624","2.59984428","0.70243380","6.1383","258.1285","288.7719","11.3747","0","U","38780","999","9157","0.00044119000000","0.00001486","0.0000000000000","22341.052","553.879","31656.027","269.807","ROCKET BODY","LARGE","FR","2012-09-28","FRGUI","","3730926","222104844","0 ARIANE 5 R/B","1 38780U 12051C   23002.82542966  .00001486  00000-0  44119-3 0  9995","2 38780   6.1383 258.1285 7024338 288.7719  11.3747  2.59984428 91575"
"2.0","GENERATED VIA SPACE-TRACK.ORG API","2023-01-02T02:38:49","18 SPCS","NAVSTAR 67 (USA 239)","2012-053A","EARTH","TEME","UTC","SGP4","2023-01-01T10:07:17.427936","2.00564046","0.01345520","53.5188","195.2469","49.5359","311.6703","0","U","38833","999","7411","0.00000000000000","0.00000104","0.0000000000000","26560.309","717.975","20539.548","19824.800","PAYLOAD","LARGE","US","2012-10-04","AFETR","","3728952","221982200","0 NAVSTAR 67 (USA 239)","1 38833U 12053A   23001.42172949  .00000104  00000-0  00000-0 0  9995","2 38833  53.5188 195.2469 0134552  49.5359 311.6703  2.00564046 74119"
"2.0","GENERATED VIA SPACE-TRACK.ORG API","2023-01-02T17:42:09","18 SPCS","NAVSTAR 67 (USA 239)","2012-053A","EARTH","TEME","UTC","SGP4","2023-01-01T22:05:14.316576","2.00564054","0.01345670","53.5188","195.2265","49.5452","311.6615","0","U","38833","999","7412","0.00000000000000","0.00000104","0.0000000000000","26560.308","717.975","20539.587","19824.759","PAYLOAD","LARGE","US","2012-10-04","AFETR","","3729583","222024503","0 NAVSTAR 67 (USA 239)","1 38833U 12053A   23001.92030459  .00000104  00000-0  00000-0 0  9999","2 38833  53.5188 195.2265 0134567  49.5452 311.6615  2.00564054 74125"
"2.0","GENERATED VIA SPACE-TRACK.ORG API","2023-01-03T02:40:54","18 SPCS","NAVSTAR 67 (USA 239)","2012-053A","EARTH","TEME","UTC","SGP4","2023-01-02T10:03:11.148192","2.00564071","0.01345860","53.5188","195.2061","49.5528","311.6541","0","U","38833","999","7413","0.00000000000000","0.00000103","0.0000000000000","26560.307","717.975","20539.636","19824.707","PAYLOAD","LARGE","US","2012-10-04","AFETR","","3729873","222057547","0 NAVSTAR 67 (USA 239)","1 38833U 12053A   23002.41887903  .00000103  00000-0  00000-0 0  9997","2 38833  53.5188 195.2061 0134586  49.5528 311.6541  2.00564071 74132"
"2.0","GENERATED VIA SPACE-TRACK.ORG API","2023-01-01T17:55:23","18 SPCS","DELTA 4 R/B","2012-053B","EARTH","TEME","UTC","SGP4","2023-01-01T03:00:25.649568","1.89445615","0.02492810","52.9063","211.3125","105.3874","56.8752","0","U","38834","999","7087","0.00000000000000","0.00000094","0.0000000000000","27589.604","760.113","21899.226","20523.713","ROCKET BODY","LARGE","US","2012-10-04","AFETR","","3728759","221924590","0 DELTA 4 R/B","1 38834U 12053B   23001.12529687  .00000094  00000-0  00000-0 0  9996","2 38834  52.9063 211.3125 0249281 105.3874  56.8752  1.89445615 70870"
"2.0","GENERATED VIA SPACE-TRACK.ORG API","2023-01-02T02:38:49","18 SPCS","DELTA 4 R/B","2012-053B","EARTH","TEME","UTC","SGP4","2023-01-01T16:17:42.777312","1.89445628","0.02492710","52.9062","211.2922","105.3978","74.4852","0","U","38834","999","7088","0.00000000000000","0.00000098","0.0000000000000","27589.603","760.113","21899.197","20523.739","ROCKET BODY","LARGE","US","2012-10-04","AFETR","","3728952","221982452","0 DELTA 4 R/B","1 38834U 12053B   23001.67896733  .00000098  00000-0  00000-0 0  9999","2 38834  52.9062 211.2922 0249271 105.3978  74.4852  1.89445628 70889"
"2.0","GENERATED VIA SPACE-TRACK.ORG API","2023-01-02T17:42:09","18 SPCS","DELTA 4 R/B","2012-053B","EARTH","TEME","UTC","SGP4","2023-01-02T04:51:49.419648","1.89445625","0.02492590","52.9062","211.2729","105.4070","71.6471","0","U","38834","999","7089","0.00000000000000","0.00000100","0.0000000000000","27589.603","760.113","21899.164","20523.773","ROCKET BODY","LARGE","US","2012-10-04","AFETR","","3729583","222024243","0 DELTA 4 R/B","1 38834U 12053B   23002.20265532  .00000100  00000-0  00000-0 0  9990","2 38834  52.9062 211.2729 0249259 105.4070  71.6471  1.89445625 70898"
"2.0","GENERATED VIA SPACE-TRACK.ORG API","2023-01-02T02:38:49","18 SPCS","GALILEO-FM3","2012-055A","EARTH","TEME","UTC","SGP4","2023-01-01T13:21:41.001120","1.70473530","0.00028430","55.1997","136.2511","236.3111","123.6160","0","U","38857","999","6348","0.00000000000000","0.00000015","0.0000000000000","29600.374","844.706","23230.655","23213.824","PAYLOAD","LARGE","ESA","2012-10-12","FRGUI","","3728952","221982703","0 GALILEO-FM3","1 38857U 12055A   23001.55672455  .00000015  00000-0  00000-0 0  9995","2 38857  55.1997 136.2511 0002843 236.3111 123.6160  1.70473530 63482"
